[{"OBJECT_NAME":"LYNK TOWER 4","OBJECT_ID":"2023-001AB","EPOCH":"2026-03-09T16:15:30.644928","MEAN_MOTION":15.31819885,"ECCENTRICITY":0.00103213,"INCLINATION":97.3324,"RA_OF_ASC_NODE":128.594,"ARG_OF_PERICENTER":112.3386,"MEAN_ANOMALY":247.895,"EPHEMERIS_TYPE":0,"CLASSIFICATION_TYPE":"U","NORAD_CAT_ID":55034,"ELEMENT_SET_NO":999,"REV_AT_EPOCH":17658,"BSTAR":0.00030013829,"MEAN_MOTION_DOT":9.16e-5,"MEAN_MOTION_DDOT":0},{"OBJECT_NAME":"STARLINK-35629","OBJECT_ID":"2025-237P","EPOCH":"2026-03-09T05:07:28.617024","MEAN_MOTION":15.30211335,"ECCENTRICITY":0.00013239,"INCLINATION":53.1591,"RA_OF_ASC_NODE":42.1174,"ARG_OF_PERICENTER":92.2864,"MEAN_ANOMALY":267.8288,"EPHEMERIS_TYPE":0,"CLASSIFICATION_TYPE":"U","NORAD_CAT_ID":66127,"ELEMENT_SET_NO":999,"REV_AT_EPOCH":2253,"BSTAR":0.0024749513,"MEAN_MOTION_DOT":0.00073697,"MEAN_MOTION_DDOT":0}]
