LYNK TOWER 4            
1 55034U 23001AB  26068.67743801  .00009160  00000+0  30014-3 0  9997
2 55034  97.3324 128.5940 0010321 112.3386 247.8950 15.31819885176588
STARLINK-35629          
1 66127U 25237P   26068.21352566  .00073697  00000+0  24750-2 0  9994
2 66127  53.1591  42.1174 0001323  92.2864 267.8288 15.30211335 22534
